STARLINK-35343          
1 67334U 26003A   26068.49539460  .00033727  00000+0  12290-2 0  9993
2 67334  43.0002 228.2092 0001671 271.3939  88.6721 15.27593914  8790
KUIPER-00266            
1 67789U 26030AB  26067.91293632  .00029701  00000+0  98220-3 0  9996
2 67789  51.8807 223.5904 0022313  72.5291 287.8129 15.30874235  4964
